IRIDIUM 144             
1 43249U 18030A   25137.36402162  .00000105  00000+0  30305-4 0  9996
2 43249  86.3939  95.8923 0002413  87.7207 272.4265 14.34218123373403
IRIDIUM 149             
1 43250U 18030B   25137.57967018  .00000052  00000+0  11481-4 0  9992
2 43250  86.3940  95.7733 0002448  86.9225 273.2251 14.34217644373450
IRIDIUM 157             
1 43251U 18030C   25137.59869472  .00000120  00000+0  35915-4 0  9994
2 43251  86.3941  95.8098 0002143  81.5977 278.5461 14.34216693373436
IRIDIUM 140             
1 43252U 18030D   25137.40841998  .00000077  00000+0  20321-4 0  9994
2 43252  86.3941  95.9030 0002423  89.9858 270.1615 14.34217871373466
IRIDIUM 145             
1 43253U 18030E   25137.60504035  .00000144  00000+0  44443-4 0  9991
2 43253  86.3941  95.7937 0002651  87.4270 272.7229 14.34217979373429
IRIDIUM 146             
1 43254U 18030F   25137.58601315  .00000076  00000+0  20218-4 0  9996
2 43254  86.3942  95.8154 0002710  87.5155 272.6351 14.34217751373436
IRIDIUM 148             
1 43255U 18030G   25137.41477874  .00000375  00000+0  12700-3 0  9998
2 43255  86.3942  95.9238 0002420  82.7868 277.3602 14.34221401373446
IRIDIUM 142             
1 43256U 18030H   25137.59235583  .00000089  00000+0  24609-4 0  9991
2 43256  86.3940  95.7531 0002787  85.4102 274.7412 14.34217996373439
